<?xml version="1.0" encoding="UTF-8"?>
<kml xmlns="http://www.opengis.net/kml/2.2"><Document>
<Placemark><name>Edificio exemplo</name><Polygon><outerBoundaryIs><LinearRing><coordinates>
-46.65400,-23.56100,0 -46.65370,-23.56100,0 -46.65370,-23.56135,0 -46.65400,-23.56135,0 -46.65400,-23.56100,0
</coordinates></LinearRing></outerBoundaryIs></Polygon></Placemark>
<Placemark><name>Gleba exemplo</name><Polygon><outerBoundaryIs><LinearRing><coordinates>
-46.65500,-23.56000,0 -46.65250,-23.56000,0 -46.65250,-23.56220,0 -46.65500,-23.56220,0 -46.65500,-23.56000,0
</coordinates></LinearRing></outerBoundaryIs></Polygon></Placemark>
</Document></kml>
